      2.10          N: GNSS NAV DATA                        RINEX VERSION / TYPE
fic2rin                                 06/28/2022 00:17:44 PGM / RUN BY / DATE
                                                            END OF HEADER
14 22  6 27 18  0  0.0 -.111963599920D-03 -.227373675443D-12  .000000000000D+00
     .173000000000D+03  .949375000000D+02  .431696553323D-08  .122006991402D+01
     .486895442009D-05  .205784267746D-02  .949949026108D-05  .515366637230D+04
     .151200000000D+06 -.298023223877D-07 -.759800736750D-01  .614672899246D-07
     .952643199219D+00  .193125000000D+03 -.312215051182D+01 -.778282418587D-08
    -.105004373854D-09  .100000000000D+01  .221600000000D+04  .000000000000D+00
     .240000000000D+01  .000000000000D+00 -.791624188423D-08  .941000000000D+03
     .144000000000D+06  .400000000000D+01
2  22  6 27 20  0  0.0 -.652218703181D-03  .454747350886D-12  .000000000000D+00
     .120000000000D+02 -.102968750000D+03  .445589989183D-08 -.251470348541D+01
    -.495463609695D-05  .204149454366D-01  .152364373207D-05  .515369181252D+04
     .158400000000D+06  .135973095894D-06  .190260113038D+01  .244006514549D-06
     .965904817858D+00  .346437500000D+03 -.141145001578D+01 -.791282960111D-08
    -.189293599124D-10  .100000000000D+01  .221600000000D+04  .000000000000D+00
     .240000000000D+01  .000000000000D+00 -.176951289177D-07  .120000000000D+02
     .151200000000D+06  .400000000000D+01
1  22  6 27 20  0  0.0  .332561787218D-03 -.773070496507D-11  .000000000000D+00
     .360000000000D+02 -.101781250000D+03  .403981113149D-08 -.268071184783D+01
    -.545568764210D-05  .120233816560D-01  .275298953056D-05  .515366599846D+04
     .158400000000D+06  .191852450371D-06  .199466858209D+01 -.197440385818D-06
     .987863380612D+00  .339750000000D+03  .925494971152D+00 -.783854079240D-08
    -.592881838765D-10  .100000000000D+01  .221600000000D+04  .000000000000D+00
     .240000000000D+01  .000000000000D+00  .512227416039D-08  .360000000000D+02
     .151200000000D+06  .400000000000D+01
3  22  6 27 20  0  0.0 -.291472766548D-03 -.111413100967D-10  .000000000000D+00
     .340000000000D+02 -.793437500000D+02  .391552023999D-08  .249887538913D+01
    -.429153442383D-05  .433487829287D-02  .998750329018D-05  .515360976791D+04
     .158400000000D+06 -.484287738800D-07  .302824356351D+01 -.912696123123D-07
     .974711036101D+00  .192937500000D+03  .985045702376D+00 -.751066999241D-08
     .168221292806D-09  .100000000000D+01  .221600000000D+04  .000000000000D+00
     .340000000000D+01  .000000000000D+00  .186264514923D-08  .340000000000D+02
     .151200000000D+06  .400000000000D+01
12 22  6 27 20  0  0.0 -.237747095525D-03 -.591171556152D-11  .000000000000D+00
     .230000000000D+02  .106687500000D+03  .375801367921D-08  .231217772533D+01
     .544451177120D-05  .857469404582D-02  .967271625996D-05  .515378476906D+04
     .158400000000D+06  .137835741043D-06 -.426813400891D-01 -.949949026108D-07
     .969266093046D+00  .194812500000D+03  .130944523074D+01 -.746495380243D-08
    -.739316509786D-10  .100000000000D+01  .221600000000D+04  .000000000000D+00
     .240000000000D+01  .000000000000D+00 -.125728547573D-07  .230000000000D+02
     .151200000000D+06  .400000000000D+01
9  22  6 27 20  0  0.0 -.324473250657D-03  .352429196937D-11  .000000000000D+00
     .170000000000D+02  .169687500000D+02  .486913139030D-08  .444013060412D-01
     .862404704094D-06  .218424235936D-02  .683218240738D-05  .515379979134D+04
     .158400000000D+06 -.335276126862D-07 -.222795124974D+01  .149011611938D-07
     .954354933331D+00  .244875000000D+03  .190778221129D+01 -.808247952486D-08
     .315370279295D-09  .100000000000D+01  .221600000000D+04  .000000000000D+00
     .240000000000D+01  .000000000000D+00  .139698386192D-08  .170000000000D+02
     .151200000000D+06  .400000000000D+01
8  22  6 27 20  0  0.0 -.739013776183D-04 -.159161572810D-11  .000000000000D+00
     .580000000000D+02  .941875000000D+02  .449661587353D-08 -.516596908323D+00
     .504404306412D-05  .743389502168D-02  .242516398430D-05  .515378409958D+04
     .158400000000D+06  .122934579849D-06  .911283194534D+00 -.149011611938D-07
     .963188394034D+00  .329812500000D+03  .173845211637D+00 -.830606026646D-08
     .325013538118D-09  .100000000000D+01  .221600000000D+04  .000000000000D+00
     .240000000000D+01  .000000000000D+00  .512227416039D-08  .580000000000D+02
     .151200000000D+06  .400000000000D+01
5  22  6 27 20  0  0.0 -.870889052749D-04 -.136424205266D-11  .000000000000D+00
     .120000000000D+03 -.848437500000D+02  .435482425305D-08 -.492541022825D-01
    -.427104532719D-05  .608208391350D-02  .102072954178D-04  .515375046158D+04
     .158400000000D+06 -.502914190292D-07  .298610658109D+01  .204890966415D-07
     .961718345692D+00  .180843750000D+03  .104751270081D+01 -.788961434839D-08
     .155720772109D-09  .100000000000D+01  .221600000000D+04  .000000000000D+00
     .240000000000D+01  .000000000000D+00 -.111758708954D-07  .120000000000D+03
     .151200000000D+06  .400000000000D+01
7  22  6 27 20  0  0.0  .320950057358D-03 -.909494701773D-12  .000000000000D+00
     .108000000000D+03 -.152187500000D+02  .471626788006D-08  .294955718940D+01
    -.922009348869D-06  .162824027939D-01  .678189098835D-05  .515365072060D+04
     .158400000000D+06  .558793544769D-08 -.115581706127D+01 -.186264514923D-06
     .950345547398D+00  .240250000000D+03 -.225708305721D+01 -.775639451354D-08
    -.503592405216D-09  .100000000000D+01  .221600000000D+04  .000000000000D+00
     .340000000000D+01  .000000000000D+00 -.111758708954D-07  .108000000000D+03
     .151200000000D+06  .400000000000D+01
6  22  6 27 20  0  0.0  .361359212548D-03  .159161572810D-10  .000000000000D+00
     .730000000000D+02 -.100312500000D+03  .414088677027D-08 -.245145394577D+01
    -.506825745106D-05  .247790536378D-02  .327639281750D-05  .515374983406D+04
     .158400000000D+06 -.596046447754D-07  .198638739637D+01  .353902578354D-07
     .987188600871D+00  .330343750000D+03 -.857470572223D+00 -.791425823205D-08
    -.123576576032D-09  .100000000000D+01  .221600000000D+04  .000000000000D+00
     .340000000000D+01  .000000000000D+00  .372529029846D-08  .730000000000D+02
     .151200000000D+06  .400000000000D+01
4  22  6 27 20  0  0.0 -.152364373207D-03  .420641299570D-11  .000000000000D+00
     .133000000000D+03  .125000000000D+02  .467876631797D-08 -.890546415610D+00
     .540167093277D-06  .186038063839D-02  .670738518238D-05  .515359300232D+04
     .158400000000D+06  .745058059692D-08 -.217391511695D+01 -.260770320892D-07
     .961240005127D+00  .252281250000D+03 -.297505168220D+01 -.794211653532D-08
     .269654089318D-09  .100000000000D+01  .221600000000D+04  .000000000000D+00
     .240000000000D+01  .000000000000D+00 -.465661287308D-08  .389000000000D+03
     .151200000000D+06  .400000000000D+01
31 22  6 27 20  0  0.0 -.183520838618D-03 -.159161572810D-11  .000000000000D+00
     .340000000000D+02 -.116250000000D+02  .475055502254D-08  .245677497820D+01
    -.771135091782D-06  .104372684145D-01  .701472163200D-05  .515375576401D+04
     .158400000000D+06 -.150874257088D-06 -.113718947374D+01 -.968575477600D-07
     .954544154470D+00  .245031250000D+03  .398480927473D+00 -.791354391658D-08
    -.562166273625D-09  .100000000000D+01  .221600000000D+04  .000000000000D+00
     .240000000000D+01  .000000000000D+00 -.135041773319D-07  .340000000000D+02
     .151200000000D+06  .400000000000D+01
24 22  6 27 20  0  0.0  .210863538086D-03 -.909494701773D-11  .000000000000D+00
     .270000000000D+02 -.131875000000D+02  .514700010750D-08 -.235797031328D+01
    -.638887286186D-06  .125733497553D-01  .614300370216D-05  .515367566299D+04
     .158400000000D+06  .800937414169D-07 -.124081545729D+01 -.100582838058D-06
     .933802995569D+00  .246062500000D+03  .819246031080D+00 -.800426198107D-08
    -.362157942475D-09  .100000000000D+01  .221600000000D+04  .000000000000D+00
     .240000000000D+01  .000000000000D+00  .279396772385D-08  .270000000000D+02
     .151200000000D+06  .400000000000D+01
19 22  6 27 20  0  0.0  .176341738552D-03  .500222085975D-11  .000000000000D+00
     .200000000000D+02  .724375000000D+02  .424160525131D-08  .182973011458D+01
     .364705920219D-05  .929037225433D-02  .117346644402D-05  .515370796776D+04
     .158400000000D+06  .173225998878D-06  .103998951878D+01  .260770320892D-07
     .977220224413D+00  .365000000000D+03  .210152873226D+01 -.800640492747D-08
     .211437378644D-09  .100000000000D+01  .221600000000D+04  .000000000000D+00
     .240000000000D+01  .000000000000D+00 -.158324837685D-07  .200000000000D+02
     .151200000000D+06  .400000000000D+01
29 22  6 27 20  0  0.0 -.528208911419D-03 -.363797880709D-11  .000000000000D+00
     .710000000000D+02  .848437500000D+02  .419553190360D-08 -.408612564125D+00
     .413320958614D-05  .224928965326D-02  .154227018356D-05  .515368475342D+04
     .158400000000D+06 -.204890966415D-07  .100851891492D+01 -.465661287308D-07
     .980467615817D+00  .357875000000D+03  .232656121781D+01 -.815998275318D-08
     .325727853587D-09  .100000000000D+01  .221600000000D+04  .000000000000D+00
     .240000000000D+01  .000000000000D+00 -.102445483208D-07  .710000000000D+02
     .151200000000D+06  .400000000000D+01
16 22  6 27 20  0  0.0 -.511877704412D-03 -.250111042988D-11  .000000000000D+00
     .740000000000D+02  .923125000000D+02  .388373320165D-08  .484034354614D+00
     .495649874210D-05  .126961863134D-01  .999122858047D-05  .515367825890D+04
     .158400000000D+06 -.143423676491D-06 -.241601710767D-01  .257045030594D-06
     .969144947337D+00  .192500000000D+03  .730973710709D+00 -.775067998979D-08
    -.158220876249D-09  .100000000000D+01  .221600000000D+04  .000000000000D+00
     .240000000000D+01  .000000000000D+00 -.102445483208D-07  .740000000000D+02
     .151200000000D+06  .400000000000D+01
